HULIANWANG DIGUI-01     
1 62323U 24240A   26074.24291761  .00000072  00000+0  13344-3 0  9995
2 62323  86.5044  14.9106 0002016  82.4897 277.6467 13.24421477 60205
HULIANWANG DIGUI-02     
1 62324U 24240B   26074.25036723  .00000067  00000+0  12124-3 0  9991
2 62324  86.5073  15.0408 0001992  86.5369 273.5993 13.24423086 60214
HULIANWANG DIGUI-03     
1 62325U 24240C   26074.23523429  .00000076  00000+0  14388-3 0  9998
2 62325  86.5027  14.8310 0002070  80.4257 279.7111 13.24423028 60205
HULIANWANG DIGUI-04     
1 62326U 24240D   26074.22771503  .00000050  00000+0  82038-4 0  9996
2 62326  86.5036  14.8661 0002105  80.8483 279.2889 13.24422655 60201
HULIANWANG DIGUI-05     
1 62327U 24240E   26074.29576210  .00000046  00000+0  71951-4 0  9999
2 62327  86.5088  15.0677 0002115  79.4641 280.6731 13.24421949 60218
HULIANWANG DIGUI-06     
1 62328U 24240F   26074.28053801  .00000031  00000+0  36986-4 0  9998
2 62328  86.5026  14.7857 0002136  83.9915 276.1462 13.24423862 60211
HULIANWANG DIGUI-07     
1 62329U 24240G   26074.27309387  .00000037  00000+0  51497-4 0  9991
2 62329  86.4997  14.6536 0002093  82.5027 277.6345 13.24422046 60211
HULIANWANG DIGUI-08     
1 62330U 24240H   26074.28822478  .00000035  00000+0  47597-4 0  9999
2 62330  86.5079  15.0268 0002174  80.2436 279.8944 13.24421848 60219
HULIANWANG DIGUI-09     
1 62331U 24240J   26074.26545882  .00000042  00000+0  63152-4 0  9992
2 62331  86.5046  14.9265 0002083  84.8773 275.2599 13.24423256 60202
HULIANWANG DIGUI-10     
1 62332U 24240K   26074.25794929  .00000061  00000+0  10902-3 0  9995
2 62332  86.5076  15.0543 0002108  86.5680 273.5695 13.24422684 60203
HULIANWANG DIGUI-11     
1 62971U 25030A   26074.26090709 -.00000104  00000+0  42480-4 0  9994
2 62971  49.9998 212.7130 0000847 203.5947 156.4887 13.29338577 53364
HULIANWANG DIGUI-12     
1 62972U 25030B   26074.26913261 -.00000106  00000+0  38206-4 0  9995
2 62972  50.0014 212.8035 0000956 197.0669 163.0172 13.29340645 53361
HULIANWANG DIGUI-13     
1 62973U 25030C   26074.25252291 -.00000113  00000+0  23819-4 0  9996
2 62973  50.0017 212.7292 0000774 190.4807 169.6049 13.29338481 53368
HULIANWANG DIGUI-14     
1 62974U 25030D   26074.30270160 -.00000099  00000+0  54499-4 0  9999
2 62974  50.0022 212.3477 0000847 188.8403 171.2454 13.29338429 53372
HULIANWANG DIGUI-15     
1 62975U 25030E   26074.16902546 -.00000108  00000+0  35300-4 0  9995
2 62975  50.0017 212.9581 0000780 197.0825 163.0021 13.29338612 53356
HULIANWANG DIGUI-16     
1 62976U 25030F   26074.29429341 -.00000099  00000+0  54083-4 0  9995
2 62976  50.0039 212.3581 0000870 187.4994 172.5865 13.29339091 53370
HULIANWANG DIGUI-17     
1 62977U 25030G   26074.28597844 -.00000096  00000+0  59728-4 0  9997
2 62977  50.0052 212.3548 0000809 193.5839 166.5012 13.29338890 53370
HULIANWANG DIGUI-18     
1 62978U 25030H   26074.27760477 -.00000098  00000+0  56750-4 0  9995
2 62978  50.0057 212.3218 0000851 195.8876 164.1969 13.29338981 53379
HULIANWANG DIGUI-19     
1 62979U 25030J   26074.23561262 -.00000111  00000+0  28002-4 0  9998
2 62979  50.0042 212.7191 0000871 189.8170 170.2685 13.29342093 53361
HULIANWANG DIGUI-20     
1 63687U 25086A   26074.26937310  .00000032  00000+0  41201-4 0  9997
2 63687  86.5121 344.7635 0001907  90.1945 269.9408 13.24421148 42444
HULIANWANG DIGUI-21     
1 63688U 25086B   26074.27685341  .00000031  00000+0  37387-4 0  9992
2 63688  86.5149 344.7930 0001845  93.7958 266.3387 13.24422743 42435
HULIANWANG DIGUI-22     
1 63689U 25086C   26074.28441940  .00000037  00000+0  51036-4 0  9992
2 63689  86.5114 344.6902 0001975  89.4282 270.7078 13.24422420 42430
HULIANWANG DIGUI-23     
1 63690U 25086D   26074.29947168  .00000053  00000+0  90374-4 0  9994
2 63690  86.5156 344.8256 0001877  86.8135 273.3214 13.24423164 42438
HULIANWANG DIGUI-24     
1 63691U 25086E   26074.30709854  .00000066  00000+0  11950-3 0  9991
2 63691  86.5163 344.8504 0001961  89.8414 270.2945 13.24421271 42434
HULIANWANG DIGUI-25     
1 63692U 25086F   26074.23907158  .00000061  00000+0  10765-3 0  9999
2 63692  86.5102 344.6892 0001855  90.7031 269.4316 13.24422718 42422
HULIANWANG DIGUI-26     
1 63693U 25086G   26074.29185129  .00000039  00000+0  57487-4 0  9990
2 63693  86.5150 344.8026 0001987  93.8226 266.3136 13.24422165 42436
HULIANWANG DIGUI-27     
1 63694U 25086H   26074.24671718  .00000068  00000+0  12361-3 0  9993
2 63694  86.5111 344.7221 0001950  89.3527 270.7831 13.24421170 42429
HULIANWANG DIGUI-28     
1 63695U 25086J   26074.26173933  .00000031  00000+0  37580-4 0  9993
2 63695  86.5076 344.6181 0001945  89.0501 271.0856 13.24422438 42426
HULIANWANG DIGUI-29     
1 63696U 25086K   26074.25427188  .00000041  00000+0  61115-4 0  9999
2 63696  86.5104 344.7034 0001850  91.2641 268.8705 13.24421309 42425
HULIANWANG DIGUI-30     
1 64283U 25121A   26074.26161882  .00000059  00000+0  10340-3 0  9991
2 64283  86.4966  45.2418 0001948  74.5616 285.5734 13.24424067 37725
HULIANWANG DIGUI-31     
1 64284U 25121B   26074.25431521  .00000071  00000+0  13129-3 0  9993
2 64284  86.4986  45.2968 0001976  74.6465 285.4887 13.24420256 37726
HULIANWANG DIGUI-32     
1 64285U 25121C   26074.24636158  .00000073  00000+0  13614-3 0  9997
2 64285  86.4927  45.1232 0001989  76.6848 283.4507 13.24425939 37726
HULIANWANG DIGUI-33     
1 64286U 25121D   26074.23878538  .00000051  00000+0  85467-4 0  9999
2 64286  86.4985  45.2865 0002009  73.1333 287.0022 13.24425958 37722
HULIANWANG DIGUI-34     
1 64287U 25121E   26074.23128994  .00000051  00000+0  85510-4 0  9993
2 64287  86.4963  45.2189 0002088  67.5633 292.5722 13.24424837 37728
HULIANWANG DIGUI-35     
1 64956U 25159A   26074.27335310  .00000033  00000+0  41933-4 0  9994
2 64956  86.4966 314.1809 0001239  83.1603 276.9672 13.24417927 30690
HULIANWANG DIGUI-36     
1 64957U 25159B   26074.26558617  .00000029  00000+0  34384-4 0  9998
2 64957  86.4986 314.2231 0001294  80.0768 280.0512 13.24420569 30697
HULIANWANG DIGUI-37     
1 64958U 25159C   26074.25804685  .00000034  00000+0  44023-4 0  9994
2 64958  86.4928 314.0820 0001324  75.7691 284.3590 13.24420165 30691
HULIANWANG DIGUI-38     
1 64959U 25159D   26074.25051089  .00000034  00000+0  45252-4 0  9992
2 64959  86.4987 314.2159 0001346  78.1520 281.9765 13.24420326 30692
HULIANWANG DIGUI-39     
1 64960U 25159E   26074.24294224  .00000049  00000+0  79765-4 0  9995
2 64960  86.4962 314.1559 0001370  79.3047 280.8241 13.24420514 30690
HULIANWANG DIGUI-40     
1 65043U 25162A   26074.26719648 -.00000097  00000+0  57336-4 0  9990
2 65043  49.9984 242.8205 0001036 110.5091 249.5893 13.29333067 30856
HULIANWANG DIGUI-41     
1 65044U 25162B   26074.25884159 -.00000094  00000+0  64019-4 0  9993
2 65044  49.9993 242.7951 0001080 109.5247 250.5741 13.29333491 30860
HULIANWANG DIGUI-42     
1 65045U 25162C   26074.25046306 -.00000092  00000+0  68748-4 0  9999
2 65045  49.9959 242.6872 0001012 111.4480 248.6500 13.29332885 30867
HULIANWANG DIGUI-43     
1 65046U 25162D   26074.24208184 -.00000087  00000+0  80614-4 0  9993
2 65046  49.9976 242.6768 0001009 109.9493 250.1488 13.29333949 30868
HULIANWANG DIGUI-44     
1 65047U 25162E   26074.30856117 -.00000087  00000+0  78771-4 0  9997
2 65047  50.0003 242.4116 0000684  24.9845 335.1060 13.29341414 30881
HULIANWANG DIGUI-45     
1 65048U 25162F   26074.30059233 -.00000085  00000+0  84093-4 0  9994
2 65048  50.0032 242.4261 0001068 109.2964 250.8024 13.29333760 30878
HULIANWANG DIGUI-46     
1 65049U 25162G   26074.29223840 -.00000082  00000+0  90228-4 0  9994
2 65049  50.0051 242.4167 0001073 110.6740 249.4247 13.29333672 30872
HULIANWANG DIGUI-47     
1 65050U 25162H   26074.28388113 -.00000075  00000+0  10542-3 0  9992
2 65050  50.0016 242.3085 0001058 112.3109 247.7875 13.29333618 30872
HULIANWANG DIGUI-48     
1 65051U 25162J   26074.27555380 -.00000085  00000+0  83222-4 0  9991
2 65051  50.0025 242.2831 0001035 111.2612 248.8371 13.29333084 30873
HULIANWANG DIGUI-49     
1 65106U 25168A   26074.26190269 -.00000049  00000+0  16182-3 0  9998
2 65106  50.0033 302.8394 0007496 180.8700 179.2160 13.29340234 30190
HULIANWANG DIGUI-50     
1 65107U 25168B   26074.25349392 -.00000051  00000+0  15679-3 0  9994
2 65107  50.0003 302.7365 0008512 167.2195 192.8895 13.29340822 30191
HULIANWANG DIGUI-51     
1 65108U 25168C   26074.24512672 -.00000046  00000+0  16888-3 0  9994
2 65108  50.0041 302.7653 0009847 167.2500 192.8623 13.29341149 30198
HULIANWANG DIGUI-52     
1 65109U 25168D   26074.31207505 -.00000049  00000+0  16156-3 0  9990
2 65109  50.0034 302.4348 0009702 180.2755 179.8113 13.29339730 30200
HULIANWANG DIGUI-53     
1 65110U 25168E   26074.30372294 -.00000045  00000+0  17021-3 0  9997
2 65110  50.0041 302.4137 0008534 169.9494 190.1551 13.29339637 30200
HULIANWANG DIGUI-54     
1 65111U 25168F   26074.27886144 -.00000040  00000+0  18172-3 0  9991
2 65111  49.9992 302.1900 0010100 175.3404 184.7564 13.29337017 30205
HULIANWANG DIGUI-55     
1 65112U 25168G   26074.22010583 -.00000043  00000+0  17423-3 0  9994
2 65112  49.9998 302.5538 0011393 171.0902 189.0174 13.29340371 30194
HULIANWANG DIGUI-56     
1 65113U 25168H   26074.28695362 -.00000043  00000+0  17336-3 0  9998
2 65113  49.9990 302.2245 0011027 193.1072 166.9515 13.29339806 30202
HULIANWANG DIGUI-57     
1 65114U 25168J   26074.27053630 -.00000048  00000+0  16334-3 0  9996
2 65114  50.0018 302.1961 0008817 183.3863 176.6951 13.29336787 30211
HULIANWANG DIGUI-58     
1 65164U 25174A   26074.28442330  .00000115  00000+0  23273-3 0  9992
2 65164  86.4911 283.7401 0001380  95.6907 264.4384 13.24422043 28361
HULIANWANG DIGUI-59     
1 65165U 25174B   26074.29197247  .00000142  00000+0  29773-3 0  9999
2 65165  86.4872 283.6633 0001353  95.6975 264.4313 13.24422329 28368
